COSMOS 2433 (720)       
1 32275U 07052A   23230.13914635 -.00000073  00000+0  00000+0 0  9994
2 32275  66.0268 350.5065 0003121 209.5042 150.4906  2.13104274123063
COSMOS 2432 (719)       
1 32276U 07052B   23229.73359935 -.00000075  00000+0  00000+0 0  9997
2 32276  66.0413 350.6283 0007878 325.8113  30.1804  2.13103411123044
COSMOS 2434 (721)       
1 32393U 07065A   23230.00680223  .00000055  00000+0  00000+0 0  9997
2 32393  64.3381 226.8945 0000181 198.4713 311.1063  2.13103170121766
COSMOS 2436 (723)       
1 32395U 07065C   23230.13113036  .00000056  00000+0  00000+0 0  9997
2 32395  64.3467 226.9519 0015561 351.4763  29.0192  2.13102914121702
COSMOS 2456 (730)       
1 36111U 09070A   23229.13313317  .00000017  00000+0  00000+0 0  9994
2 36111  64.4827 106.4318 0002816 327.5830  31.1894  2.13099333106403
COSMOS 2457 (733)       
1 36112U 09070B   23229.22257976  .00000017  00000+0  00000+0 0  9993
2 36112  64.4667 106.2944 0005048 150.7732  47.2624  2.13101492106416
COSMOS 2460 (732)       
1 36402U 10007C   23230.11276484 -.00000073  00000+0  00000+0 0  9995
2 36402  65.8897 349.2258 0001613 143.7077   5.4439  2.13106456104786
COSMOS 2476 (744)       
1 37867U 11064A   23229.45998677  .00000018  00000+0  00000+0 0  9993
2 37867  64.7630 107.9410 0021415 234.3197 284.3621  2.13101844 91766
COSMOS 2477 (745)       
1 37868U 11064B   23228.32210729  .00000012  00000+0  00000+0 0  9998
2 37868  64.7700 108.0490 0018665 235.1228 308.5103  2.13101763 91698
COSMOS 2475 (743)       
1 37869U 11064C   23229.29717942  .00000018  00000+0  00000+0 0  9991
2 37869  64.7775 108.0280 0022995 252.5777 277.5500  2.13102147 91728
COSMOS 2485 (747)       
1 39155U 13019A   23227.78736511  .00000008  00000+0  00000+0 0  9997
2 39155  64.9229 108.5173 0021906 230.3863 129.5035  2.13102071 80195
COSMOS 2492 (754)       
1 39620U 14012A   23229.15057589 -.00000079  00000+0  00000+0 0  9991
2 39620  65.7737 348.8789 0010932 320.6570  39.2742  2.13103289 73187
COSMOS 2500 (755)       
1 40001U 14032A   23229.80336513 -.00000075  00000+0  00000+0 0  9993
2 40001  65.7118 348.6859 0007610 192.7463 167.2479  2.13106054 71415
COSMOS 2501 (702K)      
1 40315U 14075A   23229.11458842  .00000051  00000+0  00000+0 0  9995
2 40315  63.6416 226.2950 0020202 211.7149 148.1764  2.13101448 67792
COSMOS 2514 (751)       
1 41330U 16008A   23228.62653973 -.00000082  00000+0  00000+0 0  9993
2 41330  65.5094 348.3114 0011162 203.7240 156.2346  2.13102786 58555
COSMOS 2516 (753)       
1 41554U 16032A   23229.21104377  .00000052  00000+0  00000+0 0  9999
2 41554  63.8680 226.6873 0015531 214.8077 145.1042  2.13106522 56178
COSMOS 2522 (752)       
1 42939U 17055A   23229.40697237  .00000053  00000+0  00000+0 0  9997
2 42939  64.1021 227.2005 0010155 243.1382 116.7719  2.13102048 45929
COSMOS 2527 (756)       
1 43508U 18053A   23229.36565231  .00000018  00000+0  00000+0 0  9993
2 43508  65.0848 108.5529 0007436 224.6194 135.4103  2.13102514 40225
COSMOS 2529 (757)       
1 43687U 18086A   23228.05718428  .00000054  00000+0  00000+0 0  9990
2 43687  64.3174 227.6772 0011800 261.5375  98.3495  2.13102162 37205
COSMOS 2534 (758)       
1 44299U 19030A   23230.01191646  .00000056  00000+0  00000+0 0  9998
2 44299  64.3900 227.5354 0013863 280.2229 273.5655  2.13102148 32893
COSMOS 2544 (759)       
1 44850U 19088A   23228.37083758  .00000013  00000+0  00000+0 0  9997
2 44850  65.0704 108.4295 0011815 255.2444 104.7110  2.13102298 28626
COSMOS 2545 (760)       
1 45358U 20018A   23228.56757518 -.00000083  00000+0  00000+0 0  9997
2 45358  64.8498 348.5738 0009080 235.4069 124.5172  2.13102737 26590
COSMOS 2547 (705K)      
1 46805U 20075A   23230.16449430  .00000057  00000+0  00000+0 0  9998
2 46805  64.6171 227.0812 0008790 243.9810 115.9401  2.13103054 21871
COSMOS 2557 (706K)      
1 52984U 22075A   23228.91909354 -.00000082  00000+0  00000+0 0  9990
2 52984  64.7659 350.7228 0011234 276.7982  83.0827  2.13102405  8639
COSMOS 2559 (707K)      
1 54031U 22130A   23229.33026523 -.00000080  00000+0  00000+0 0  9990
2 54031  64.7366 350.8367 0006636 213.5820 146.3859  2.13101632  6631
COSMOS 2564 (761)       
1 54377U 22161A   23228.11580311  .00000054  00000+0  00000+0 0  9992
2 54377  64.7579 227.1996 0011253 226.8638 133.0619  2.13102231  5552
